NORAD_CAT_ID,OBJECT_NAME,OBJECT_TYPE,EPOCH,MEAN_MOTION,ECCENTRICITY,INCLINATION,RA_OF_ASC_NODE,ARG_OF_PERICENTER,MEAN_ANOMALY,BSTAR,MEAN_MOTION_DOT,MEAN_MOTION_DDOT,TLE_LINE0,TLE_LINE1,TLE_LINE2,SEMIMAJOR_AXIS,PERIOD,APOGEE,PERIGEE,DECAYED
52849.0,STARLINK-4197,PAYLOAD,2022-11-05 11:57:49,15.0884193,0.0002437,53.2175,101.7638,34.7914,325.3237,3.3445e-05,2.44e-06,0.0,0 STARLINK-4197,1 52849U 22062V   22309.49849257  .00000244  00000-0  33445-4 0  9997,2 52849  53.2175 101.7638 0002437  34.7914 325.3237 15.08841930 21718,6917.874,95.437,541.425,538.054,0.0
52849.0,STARLINK-4197,PAYLOAD,2022-11-05 16:43:59,15.08837251,0.0002255,53.2174,100.8707,39.3927,320.7229,-8.6411e-06,-4.26e-06,0.0,0 STARLINK-4197,1 52849U 22062V   22309.69721586 -.00000426  00000-0 -86411-5 0  9999,2 52849  53.2174 100.8707 0002255  39.3927 320.7229 15.08837251 22236,6917.889,95.438,541.314,538.194,0.0
52849.0,STARLINK-4197,PAYLOAD,2022-11-06 11:48:37,15.08835165,0.000249,53.2182,97.3044,32.3356,327.7789,-0.00017321,-3.044e-05,0.0,0 STARLINK-4197,1 52849U 22062V   22310.49210279 -.00003044  00000-0 -17321-3 0  9992,2 52849  53.2182  97.3044 0002490  32.3356 327.7789 15.08835165 21867,6917.895,95.438,541.4830000000002,538.038,0.0
52849.0,STARLINK-4197,PAYLOAD,2022-11-07 16:25:34,15.08827291,0.0001927,53.2181,91.9475,41.0066,319.1071,6.0822e-05,6.8e-06,0.0,0 STARLINK-4197,1 52849U 22062V   22311.68442593  .00000680  00000-0  60822-4 0  9996,2 52849  53.2181  91.9475 0001927  41.0066 319.1071 15.08827291 22538,6917.919,95.438,541.117,538.451,0.0
52849.0,STARLINK-4197,PAYLOAD,2022-11-08 05:08:39,15.08833614,0.0001999,53.2197,89.5722,25.565,334.5440000000001,0.00016277,2.303e-05,0.0,0 STARLINK-4197,1 52849U 22062V   22312.21434138  .00002303  00000-0  16277-3 0  9990,2 52849  53.2197  89.5722 0001999  25.5650 334.5440 15.08833614 22614,6917.9,95.438,541.148,538.382,0.0
52849.0,STARLINK-4197,PAYLOAD,2022-11-08 09:54:47,15.08846081,0.0002508,53.2187,88.6819,28.5236,331.5893,0.00025665,3.799e-05,0.0,0 STARLINK-4197,1 52849U 22062V   22312.41305326  .00003799  00000-0  25665-3 0  9999,2 52849  53.2187  88.6819 0002508  28.5236 331.5893 15.08846081 22644,6917.861999999999,95.437,541.462,537.992,0.0
52849.0,STARLINK-4197,PAYLOAD,2022-11-08 16:16:19,15.08856481,0.0002408,53.2182,87.4908,29.1487,330.9639,0.00035929,5.437e-05,0.0,0 STARLINK-4197,1 52849U 22062V   22312.67800622  .00005437  00000-0  35929-3 0  9991,2 52849  53.2182  87.4908 0002408  29.1487 330.9639 15.08856481 22689,6917.83,95.437,541.361,538.029,0.0
52849.0,STARLINK-4197,PAYLOAD,2022-11-09 14:31:44,15.08835263,0.000266,53.2189,83.3262,23.0259,337.0852,-0.00011853,-2.174e-05,0.0,0 STARLINK-4197,1 52849U 22062V   22313.60537460 -.00002174  00000-0 -11853-3 0  9999,2 52849  53.2189  83.3262 0002660  23.0259 337.0852 15.08835263 22336,6917.895,95.438,541.6,537.92,0.0
52849.0,STARLINK-4197,PAYLOAD,2022-11-10 03:14:50,15.08823583,0.000242,53.2175,80.9479,30.291,329.8222,-0.00043784,-7.247e-05,0.0,0 STARLINK-4197,1 52849U 22062V   22314.13530369 -.00007247  00000-0 -43784-3 0  9993,2 52849  53.2175  80.9479 0002420  30.2910 329.8222 15.08823583 22907,6917.931,95.439,541.47,538.121,0.0
52849.0,STARLINK-4197,PAYLOAD,2022-11-10 11:11:45,15.08831149,0.0002475,53.2178,79.4621,31.9253,328.1888,-0.0002341,-4.011e-05,0.0,0 STARLINK-4197,1 52849U 22062V   22314.46650161 -.00004011  00000-0 -23410-3 0  9992,2 52849  53.2178  79.4621 0002475  31.9253 328.1888 15.08831149 22468,6917.906999999997,95.438,541.485,538.06,0.0
52849.0,STARLINK-4197,PAYLOAD,2022-11-10 17:33:18,15.08830565,0.0002443,53.2174,78.2728,31.2617,328.852,-0.00015439,-2.744e-05,0.0,0 STARLINK-4197,1 52849U 22062V   22314.73146131 -.00002744  00000-0 -15439-3 0  9992,2 52849  53.2174  78.2728 0002443  31.2617 328.8520 15.08830565 22990,6917.909000000002,95.438,541.464,538.0840000000002,0.0
52849.0,STARLINK-4197,PAYLOAD,2022-11-11 12:37:56,15.088246599999998,0.000252,53.2177,74.7042,30.6463,329.4676,0.0001308,1.793e-05,0.0,0 STARLINK-4197,1 52849U 22062V   22315.52635415  .00001793  00000-0  13080-3 0  9999,2 52849  53.2177  74.7042 0002520  30.6463 329.4676 15.08824660 22629,6917.927,95.439,541.536,538.049,0.0
52849.0,STARLINK-4197,PAYLOAD,2022-11-11 14:13:20,15.08823533,0.0002323,53.2178,74.4059,32.343,327.7704,0.00011944,1.612e-05,0.0,0 STARLINK-4197,1 52849U 22062V   22315.59259481  .00001612  00000-0  11944-3 0  9998,2 52849  53.2178  74.4059 0002323  32.3430 327.7704 15.08823533 23126,6917.931,95.439,541.403,538.189,0.0
52849.0,STARLINK-4197,PAYLOAD,2022-11-11 17:24:06,15.08831867,0.0002333,53.2179,73.8115,34.4437,325.6706,0.00013639,1.883e-05,0.0,0 STARLINK-4197,1 52849U 22062V   22315.72507216  .00001883  00000-0  13639-3 0  9998,2 52849  53.2179  73.8115 0002333  34.4437 325.6706 15.08831867 22659,6917.905,95.438,541.384,538.156,0.0
52849.0,STARLINK-4197,PAYLOAD,2022-11-12 04:31:48,15.08845999,0.0002549,53.2179,71.7309,30.0705,330.0434,0.00054817,8.448e-05,0.0,0 STARLINK-4197,1 52849U 22062V   22316.18875237  .00008448  00000-0  54817-3 0  9997,2 52849  53.2179  71.7309 0002549  30.0705 330.0434 15.08845999 23212,6917.861999999999,95.437,541.49,537.964,0.0
52849.0,STARLINK-4197,PAYLOAD,2022-11-12 14:04:06,15.08866451,0.0002591,53.2176,69.947,30.6224,329.4919,0.00099924,0.00015662,0.0,0 STARLINK-4197,1 52849U 22062V   22316.58618723  .00015662  00000-0  99924-3 0  9990,2 52849  53.2176  69.9470 0002591  30.6224 329.4919 15.08866451 22783,6917.8,95.436,541.457,537.872,0.0
52849.0,STARLINK-4197,PAYLOAD,2022-11-13 02:47:11,15.08862556,0.0002691,53.2177,67.5681,29.847,330.2675,0.00045592,6.979999999999999e-05,0.0,0 STARLINK-4197,1 52849U 22062V   22317.11610174  .00006980  00000-0  45592-3 0  9997,2 52849  53.2177  67.5681 0002691  29.8470 330.2675 15.08862556 23351,6917.811,95.436,541.538,537.815,0.0
52849.0,STARLINK-4197,PAYLOAD,2022-11-13 10:44:06,15.08845012,0.0002863,53.2181,66.0819,22.9951,337.1169,-0.00023939,-4.097e-05,0.0,0 STARLINK-4197,1 52849U 22062V   22317.44730118 -.00004097  00000-0 -23939-3 0  9994,2 52849  53.2181  66.0819 0002863  22.9951 337.1169 15.08845012 23400,6917.865,95.437,541.711,537.749,0.0
52849.0,STARLINK-4197,PAYLOAD,2022-11-13 13:54:53,15.08846232,0.000262,53.2179,65.4865,26.7578,333.3549,-8.8995e-05,-1.705e-05,0.0,0 STARLINK-4197,1 52849U 22062V   22317.57978212 -.00001705  00000-0 -88995-4 0  9994,2 52849  53.2179  65.4865 0002620  26.7578 333.3549 15.08846232 22931,6917.861,95.437,541.539,537.914,0.0
52849.0,STARLINK-4197,PAYLOAD,2022-11-14 10:34:54,15.0883837,0.000266,53.218,61.6209,26.1998,333.9128,0.00031679,4.757e-05,0.0,0 STARLINK-4197,1 52849U 22062V   22318.44090601  .00004757  00000-0  31679-3 0  9992,2 52849  53.2180  61.6209 0002660  26.1998 333.9128 15.08838370 23065,6917.885,95.438,541.591,537.91,0.0
52849.0,STARLINK-4197,PAYLOAD,2022-11-14 13:45:40,15.08841852,0.0002656,53.2185,61.0261,23.8294,336.282,0.00036552,5.534e-05,0.0,0 STARLINK-4197,1 52849U 22062V   22318.57338520  .00005534  00000-0  36552-3 0  9990,2 52849  53.2185  61.0261 0002656  23.8294 336.2820 15.08841852 23086,6917.875,95.437,541.577,537.9019999999998,0.0
52849.0,STARLINK-4197,PAYLOAD,2022-11-15 13:36:27,15.08834773,0.0002738,53.2184,56.5667,22.0909,338.0201,-9.0722e-06,-4.33e-06,0.0,0 STARLINK-4197,1 52849U 22062V   22319.56698758 -.00000433  00000-0 -90722-5 0  9998,2 52849  53.2184  56.5667 0002738  22.0909 338.0201 15.08834773 23233,6917.896,95.438,541.655,537.867,0.0
52849.0,STARLINK-4197,PAYLOAD,2022-11-16 03:54:55,15.08843714,0.0002704,53.2184,53.8902,21.3582,338.7522,0.00010257,1.345e-05,0.0,0 STARLINK-4197,1 52849U 22062V   22320.16314364  .00001345  00000-0  10257-3 0  9998,2 52849  53.2184  53.8902 0002704  21.3582 338.7522 15.08843714 23819,6917.869000000002,95.437,541.605,537.863,0.0
52849.0,STARLINK-4197,PAYLOAD,2022-11-16 10:16:28,15.08834823,0.0002739,53.2196,52.7003,22.1895,337.9215,-2.5756e-06,-3.3e-06,0.0,0 STARLINK-4197,1 52849U 22062V   22320.42811275 -.00000330  00000-0 -25756-5 0  9997,2 52849  53.2196  52.7003 0002739  22.1895 337.9215 15.08834823 23851,6917.896,95.438,541.656,537.866,0.0
52849.0,STARLINK-4197,PAYLOAD,2022-11-17 02:10:19,15.08839425,0.0002727,53.2193,49.7272,22.4311,337.68,0.00015683,2.208e-05,0.0,0 STARLINK-4197,1 52849U 22062V   22321.09050483  .00002208  00000-0  15683-3 0  9997,2 52849  53.2193  49.7272 0002727  22.4311 337.6800 15.08839425 23956,6917.882,95.438,541.634,537.861,0.0
52849.0,STARLINK-4197,PAYLOAD,2022-11-17 08:31:51,15.08848784,0.0002822,53.2185,48.5383,24.0829,336.0295,0.0002678,3.977e-05,0.0,0 STARLINK-4197,1 52849U 22062V   22321.35546124  .00003977  00000-0  26780-3 0  9992,2 52849  53.2185  48.5383 0002822  24.0829 336.0295 15.08848784 23505,6917.854,95.437,541.6709999999998,537.766,0.0
52849.0,STARLINK-4197,PAYLOAD,2022-11-17 11:42:38,15.08841055,0.0002648999999999,53.2185,47.9427,26.4141,333.6986,0.00014377,2.001e-05,0.0,0 STARLINK-4197,1 52849U 22062V   22321.48794529  .00002001  00000-0  14377-3 0  9996,2 52849  53.2185  47.9427 0002649  26.4141 333.6986 15.08841055 23523,6917.877,95.437,541.575,537.91,0.0
52849.0,STARLINK-4197,PAYLOAD,2022-11-18 08:22:39,15.08841317,0.000207,53.2186,44.0746,35.8714,324.2417,2.0764e-05,4.2e-07,0.0,0 STARLINK-4197,1 52849U 22062V   22322.34906381  .00000042  00000-0  20764-4 0  9994,2 52849  53.2186  44.0746 0002070  35.8714 324.2417 15.08841317 24149,6917.876,95.437,541.173,538.309,0.0
52849.0,STARLINK-4197,PAYLOAD,2022-11-18 09:58:02,15.08842398,0.0001973,53.2186,43.7771,37.8475,322.2656,4.0867e-05,3.62e-06,0.0,0 STARLINK-4197,1 52849U 22062V   22322.41530331  .00000362  00000-0  40867-4 0  9991,2 52849  53.2186  43.7771 0001973  37.8475 322.2656 15.08842398 23669,6917.873000000001,95.437,541.1030000000002,538.373,0.0
